ONEWEB-0685             
1 54679U 22166AP  25203.58609663 -.00000006  00000+0 -45422-4 0  9991
2 54679  87.9276 309.7436 0001988 108.4744 251.6606 13.21825096127876
ONEWEB-0712             
1 54680U 22166AQ  25204.22117112  .00000000  00000+0 -33238-4 0  9993
2 54680  87.9052 294.3342 0002608 101.0285 259.1139 13.16594644129236
ONEWEB-0714             
1 54681U 22166AR  25203.59240453 -.00000004  00000+0 -41794-4 0  9999
2 54681  87.9279 309.7352 0002065 106.0133 254.1229 13.21826983127990
ONEWEB-0532             
1 55140U 23004A   25203.62223707  .00000040  00000+0  68700-4 0  9993
2 55140  87.9043  71.4567 0001329  82.6454 277.4828 13.17649096124182
ONEWEB-0533             
1 55141U 23004B   25203.57922239  .00000481  00000+0  13014-2 0  9999
2 55141  87.8856  56.1946 0001833  90.4677 269.6662 13.12442520124827
ONEWEB-0541             
1 55142U 23004C   25204.19062529  .00000426  00000+0  11652-2 0  9991
2 55142  87.8818  86.6232 0001794  78.2430 281.8899 13.11418788122834
ONEWEB-0543             
1 55143U 23004D   25203.55629594  .00000059  00000+0  11625-3 0  9995
2 55143  87.9107  41.0033 0002104  89.6273 270.5100 13.18688331126258
ONEWEB-0544             
1 55144U 23004E   25203.54968661  .00000030  00000+0  42916-4 0  9993
2 55144  87.9108  40.9946 0001980  82.5361 277.5996 13.18686509126257
